STARLINK-36809          
1 67929U 26036AB  26063.83336806  .00094847  00000+0  44923-3 0  9990
2 67929  42.9936 279.3049 0001947 260.2470 108.3933 15.81958175  2867
STARLINK-36865          
1 67930U 26036AC  26063.83336806 -.00016070  00000+0 -73933-4 0  9990
2 67930  42.9935 279.2832 0002069 268.6945 108.4778 15.82011711  2867
STARLINK-36781          
1 67931U 26036AD  26063.83336806  .00019506  00000+0  95078-4 0  9990
2 67931  42.9935 279.2941 0001637 276.2610  96.6487 15.81987471  2862
STARLINK-36301          
1 67932U 26037A   26063.83336806 -.01484538  63564-3 -38723-2 0  9996
2 67932  42.9999 228.5626 0001433 279.8211 291.9216 15.94116319  2320
STARLINK-36852          
1 67933U 26037B   26063.83336806 -.01467934  62345-3 -38023-2 0  9997
2 67933  43.0001 228.5577 0001160 278.4103 295.2172 15.94245121  2416
STARLINK-36861          
1 67934U 26037C   26063.83336806 -.01465355  62224-3 -37693-2 0  9991
2 67934  43.0000 228.5516 0001301 281.8405 294.3430 15.94374565  2411
STARLINK-36860          
1 67935U 26037D   26063.83336806 -.01479684  63431-3 -37792-2 0  9993
2 67935  42.9999 228.5451 0001437 280.9167 297.9226 15.94509331  2413
STARLINK-36848          
1 67936U 26037E   26063.83336806 -.01483061  63863-3 -37354-2 0  9991
2 67936  42.9999 228.5318 0001350 280.8762 302.9788 15.94769550  2411
STARLINK-36370          
1 67937U 26037F   26063.83336806 -.01476867  63290-3 -37463-2 0  9993
2 67937  43.0002 228.5383 0001492 278.3350 303.2085 15.94636020  2412
STARLINK-36371          
1 67938U 26037G   26063.83336806 -.01484295  64047-3 -37117-2 0  9995
2 67938  43.0001 228.5263 0001345 277.9540 307.9989 15.94903637  2417
STARLINK-36246          
1 67939U 26037H   26063.83336806 -.01472109  63164-3 -36562-2 0  9999
2 67939  43.0001 228.5216 0001439 277.5933 310.4488 15.95027806  2321
STARLINK-36907          
1 67940U 26037J   26063.83336806 -.01466519  62966-3 -35678-2 0  9995
2 67940  43.0000 228.5029 0001287 273.6281 321.3992 15.95409952  2415
STARLINK-36927          
1 67941U 26037K   26063.83336806 -.01462802  62833-3 -35106-2 0  9996
2 67941  42.9999 228.4919 0001425 273.0140 326.4164 15.95660248  2414
STARLINK-36914          
1 67942U 26037L   26063.83336806 -.01481456  63986-3 -36541-2 0  9997
2 67942  43.0001 228.5140 0001226 277.0397 313.8043 15.95158075  2411
STARLINK-36851          
1 67943U 26037M   26063.83336806 -.01473033  63399-3 -36087-2 0  9993
2 67943  43.0001 228.5088 0001349 280.2530 312.7107 15.95282062  2417
STARLINK-36892          
1 67944U 26037N   26063.83336806 -.01474904  63712-3 -35632-2 0  9996
2 67944  42.9999 228.4981 0001402 278.4210 318.7942 15.95539681  2412
